        "epoch_iso": '2026-04-13T22:55:02.514144Z',
        "inclination_deg": '97.822400',
        "eccentricity": '0.00011710',
        "mean_motion_rev_per_day": '14.90538904',
        "altitude_m": '596254.099',
    },
    {
        "name": 'COSMO-SKYMED 2',
        "norad_catalog_id": '32376',
        "tle_line1": '1 32376U 07059A   26103.95853169  .00000279  00000+0  41607-4 0  9999',
        "tle_line2": '2 32376  97.8883 288.4863 0001378  90.9825 269.1546 14.82150404992481',
        "epoch_iso": '2026-04-13T23:00:17.138016Z',
        "inclination_deg": '97.888300',
        "eccentricity": '0.00013780',
        "mean_motion_rev_per_day": '14.82150404',
        "altitude_m": '622544.563',
    },
    {
        "name": 'RADARSAT-2',
        "norad_catalog_id": '32382',
        "tle_line1": '1 32382U 07061A   26104.08443020  .00000036  00000+0  30974-4 0  9991',
        "tle_line2": '2 32382  98.5813 111.9284 0001213  88.0978 272.0343 14.29980646956793',
        "epoch_iso": '2026-04-14T02:01:34.769280Z',
        "inclination_deg": '98.581300',
        "eccentricity": '0.00012130',
        "mean_motion_rev_per_day": '14.29980646',
        "altitude_m": '791795.519',
    },
    {
        "name": 'CARTOSAT-2A',
        "norad_catalog_id": '32783',
        "tle_line1": '1 32783U 08021A   26103.91837750  .00000562  00000+0  82530-4 0  9990',
        "tle_line2": '2 32783  97.7709 154.8031 0010967 327.3165  32.7367 14.79161859969302',
        "epoch_iso": '2026-04-13T22:02:27.816000Z',
        "inclination_deg": '97.770900',
        "eccentricity": '0.00109670',
        "mean_motion_rev_per_day": '14.79161859',
        "altitude_m": '631970.988',
    },
    {
        "name": 'HUANJING 1A (HJ-1A)',
        "norad_catalog_id": '33320',
        "tle_line1": '1 33320U 08041A   26103.97207550  .00000525  00000+0  69392-4 0  9995',
        "tle_line2": '2 33320  97.6662  92.3111 0019003 354.4535   5.6466 14.83840133948887',
        "epoch_iso": '2026-04-13T23:19:47.323200Z',
        "inclination_deg": '97.666200',
        "eccentricity": '0.00190030',
        "mean_motion_rev_per_day": '14.83840133',
        "altitude_m": '617228.850',
    },
    {
        "name": 'HUANJING 1B (HJ-1B)',
        "norad_catalog_id": '33321',
        "tle_line1": '1 33321U 08041B   26103.98041480  .00000347  00000+0  48322-4 0  9997',
        "tle_line2": '2 33321  97.6506  95.6812 0037479  36.1020 324.2714 14.83198644948899',
        "epoch_iso": '2026-04-13T23:31:47.838720Z',
        "inclination_deg": '97.650600',
        "eccentricity": '0.00374790',
        "mean_motion_rev_per_day": '14.83198644',
        "altitude_m": '619245.720',
    },
    {
        "name": 'GEOEYE 1',
        "norad_catalog_id": '33331',
        "tle_line1": '1 33331U 08042A   26103.93633376  .00000263  00000+0  58308-4 0  9997',
        "tle_line2": '2 33331  98.1258 178.6766 0002885 258.9410 101.1469 14.64665996940743',
        "epoch_iso": '2026-04-13T22:28:19.236864Z',
        "inclination_deg": '98.125800',
        "eccentricity": '0.00028850',
        "mean_motion_rev_per_day": '14.64665996',
        "altitude_m": '678147.922',
    },
    {
        "name": 'THEOS',
        "norad_catalog_id": '33396',
        "tle_line1": '1 33396U 08049A   26103.92431574  .00000228  00000+0  12693-3 0  9997',
        "tle_line2": '2 33396  98.5635 163.2775 0001215  96.0005 264.1311 14.20124562908846',
        "epoch_iso": '2026-04-13T22:11:00.879936Z',
        "inclination_deg": '98.563500',
        "eccentricity": '0.00012150',
        "mean_motion_rev_per_day": '14.20124562',
        "altitude_m": '824931.564',
    },
    {
        "name": 'COSMO-SKYMED 3',
        "norad_catalog_id": '33412',
        "tle_line1": '1 33412U 08054A   26103.92483080  .00002852  00000+0  19664-3 0  9991',
        "tle_line2": '2 33412  97.8382 321.4203 0017226 121.0903 239.2017 15.06555126947269',
        "epoch_iso": '2026-04-13T22:11:45.381120Z',
        "inclination_deg": '97.838200',
        "eccentricity": '0.00172260',
        "mean_motion_rev_per_day": '15.06555126',
        "altitude_m": '546736.160',
    },
    {
        "name": 'YAOGAN-4',
        "norad_catalog_id": '33446',
        "tle_line1": '1 33446U 08061A   26103.80465736  .00000668  00000+0  88562-4 0  9998',
        "tle_line2": '2 33446  97.9279  37.8081 0012860 282.1554  77.8219 14.83080528936120',
        "epoch_iso": '2026-04-13T19:18:42.395904Z',
        "inclination_deg": '97.927900',
        "eccentricity": '0.00128600',
        "mean_motion_rev_per_day": '14.83080528',
        "altitude_m": '619617.240',
    },
    {
        "name": 'GOSAT (IBUKI)',
        "norad_catalog_id": '33492',
        "tle_line1": '1 33492U 09002A   26103.56992634  .00000427  00000+0  83693-4 0  9993',
        "tle_line2": '2 33492  98.0805 215.4872 0001100 104.5604 255.5723 14.67539004921981',
        "epoch_iso": '2026-04-13T13:40:41.635776Z',
        "inclination_deg": '98.080500',
        "eccentricity": '0.00011000',
        "mean_motion_rev_per_day": '14.67539004',
        "altitude_m": '668935.500',
    },
    {
        "name": 'DEIMOS-1',
        "norad_catalog_id": '35681',
        "tle_line1": '1 35681U 09041A   26103.88486025  .00000736  00000+0  11600-3 0  9996',
        "tle_line2": '2 35681  97.7323 263.9278 0002534  65.1442 295.0031 14.75171584897400',
        "epoch_iso": '2026-04-13T21:14:11.925600Z',
        "inclination_deg": '97.732300',
        "eccentricity": '0.00025340',
        "mean_motion_rev_per_day": '14.75171584',
        "altitude_m": '644606.654',
    },
    {
        "name": 'DUBAISAT-1',
        "norad_catalog_id": '35682',
        "tle_line1": '1 35682U 09041B   26103.91744633  .00000696  00000+0  11103-3 0  9996',
        "tle_line2": '2 35682  97.9944 237.9195 0009094 277.9756  82.0421 14.75004179895624',
        "epoch_iso": '2026-04-13T22:01:07.362912Z',
        "inclination_deg": '97.994400',
        "eccentricity": '0.00090940',
        "mean_motion_rev_per_day": '14.75004179',
        "altitude_m": '645138.006',
    },
    {
        "name": 'OCEANSAT-2',
        "norad_catalog_id": '35931',
        "tle_line1": '1 35931U 09051A   26103.93346049 -.00000180  00000+0 -97279-4 0  9994',
        "tle_line2": '2 35931  98.2312  97.2115 0016899  57.7950 302.4852 13.99654034870349',
        "epoch_iso": '2026-04-13T22:24:10.986336Z',
        "inclination_deg": '98.231200',
        "eccentricity": '0.00168990',
        "mean_motion_rev_per_day": '13.99654034',
        "altitude_m": '894993.407',
    },
    {
        "name": 'WORLDVIEW-2 (WV-2)',
        "norad_catalog_id": '35946',
        "tle_line1": '1 35946U 09055A   26103.93692647  .00000067  00000+0  36543-4 0  9991',
        "tle_line2": '2 35946  98.4701 178.2927 0005316  61.4089 298.7632 14.37925026866418',
        "epoch_iso": '2026-04-13T22:29:10.447008Z',
        "inclination_deg": '98.470100',
        "eccentricity": '0.00053160',
        "mean_motion_rev_per_day": '14.37925026',
        "altitude_m": '765362.408',
    },
    {
        "name": 'SMOS',
        "norad_catalog_id": '36036',
        "tle_line1": '1 36036U 09059A   26103.76638760  .00000159  00000+0  64731-4 0  9995',
        "tle_line2": '2 36036  98.4437 292.0406 0001081 101.7777 258.3533 14.39785017864189',
        "epoch_iso": '2026-04-13T18:23:35.888640Z',
        "inclination_deg": '98.443700',
        "eccentricity": '0.00010810',
        "mean_motion_rev_per_day": '14.39785017',
        "altitude_m": '759208.847',
    },
    {
        "name": 'YAOGAN-7',
        "norad_catalog_id": '36110',
        "tle_line1": '1 36110U 09069A   26103.70494484  .00000308  00000+0  49913-4 0  9997',
        "tle_line2": '2 36110  98.0154 349.9444 0023298 246.1185 113.7584 14.77946482880106',
        "epoch_iso": '2026-04-13T16:55:07.234176Z',
        "inclination_deg": '98.015400',
        "eccentricity": '0.00232980',
        "mean_motion_rev_per_day": '14.77946482',
        "altitude_m": '635813.597',
    },
    {
        "name": 'TANDEM-X',
        "norad_catalog_id": '36605',
        "tle_line1": '1 36605U 10030A   26103.44320482  .00000436  00000+0  23945-4 0  9992',
        "tle_line2": '2 36605  97.4461 112.0725 0001835  96.1272 264.0172 15.19152585876819',
        "epoch_iso": '2026-04-13T10:38:12.896448Z',
        "inclination_deg": '97.446100',
        "eccentricity": '0.00018350',
        "mean_motion_rev_per_day": '15.19152585',
        "altitude_m": '508400.393',
    },
    {
        "name": 'CARTOSAT-2B',
        "norad_catalog_id": '36795',
        "tle_line1": '1 36795U 10035A   26103.91725973  .00000606  00000+0  89742-4 0  9999',
        "tle_line2": '2 36795  98.0028 154.8560 0012216  44.0868 316.1314 14.78652641850354',
        "epoch_iso": '2026-04-13T22:00:51.240672Z',
        "inclination_deg": '98.002800',
        "eccentricity": '0.00122160',
        "mean_motion_rev_per_day": '14.78652641',
        "altitude_m": '633580.321',
    },
    {
        "name": 'YAOGAN-10',
        "norad_catalog_id": '36834',
        "tle_line1": '1 36834U 10038A   26104.00665380  .00000585  00000+0  74656-4 0  9996',
        "tle_line2": '2 36834  97.9043 127.9157 0001385  84.1957 304.3523 14.85152685847689',
        "epoch_iso": '2026-04-14T00:09:34.888320Z',
        "inclination_deg": '97.904300',
        "eccentricity": '0.00013850',
        "mean_motion_rev_per_day": '14.85152685',
        "altitude_m": '613106.655',
    },
    {
        "name": 'COSMO-SKYMED 4',
        "norad_catalog_id": '37216',
        "tle_line1": '1 37216U 10060A   26103.97119163  .00000190  00000+0  30422-4 0  9999',
        "tle_line2": '2 37216  97.8887 288.4997 0001523  75.5772 284.5610 14.82146997835057',
        "epoch_iso": '2026-04-13T23:18:30.956832Z',
        "inclination_deg": '97.888700',
        "eccentricity": '0.00015230',
        "mean_motion_rev_per_day": '14.82146997',
        "altitude_m": '622555.291',
    },
    {
        "name": 'RESOURCESAT-2',
        "norad_catalog_id": '37387',
